CTC1_L_00658001-01
1 10000U 22045NY  26075.70039352  .00000000  00000+0  00000-0 0  9992
2 10000  70.0000   0.0000 0000000   0.0000   0.0000  3.34706435    16
CTC1_L_00658001-02
1 10001U 25598NE  26075.70039352  .00000000  00000+0  00000-0 0  9999
2 10001  70.0000   0.0000 0000000   0.0000  36.0000  3.34706435    16
CTC1_L_00658001-03
1 10002U 24415UK  26075.70039352  .00000000  00000+0  00000-0 0  9997
2 10002  70.0000   0.0000 0000000   0.0000  72.0000  3.34706435    17
CTC1_L_00658001-04
1 10003U 24220BA  26075.70039352  .00000000  00000+0  00000-0 0  9992
2 10003  70.0000   0.0000 0000000   0.0000 108.0000  3.34706435    18
CTC1_L_00658001-05
1 10004U 22556BD  26075.70039352  .00000000  00000+0  00000-0 0  9993
2 10004  70.0000   0.0000 0000000   0.0000 144.0000  3.34706435    19
CTC1_L_00658001-06
1 10005U 26346YQ  26075.70039352  .00000000  00000+0  00000-0 0  9995
2 10005  70.0000   0.0000 0000000   0.0000 180.0000  3.34706435    10
CTC1_L_00658001-07
1 10006U 22345RY  26075.70039352  .00000000  00000+0  00000-0 0  9991
2 10006  70.0000   0.0000 0000000   0.0000 216.0000  3.34706435    11
CTC1_L_00658001-08
1 10007U 25389UK  26075.70039352  .00000000  00000+0  00000-0 0  9993
2 10007  70.0000   0.0000 0000000   0.0000 252.0000  3.34706435    12
CTC1_L_00658001-09
1 10008U 23928RK  26075.70039352  .00000000  00000+0  00000-0 0  9991
2 10008  70.0000   0.0000 0000000   0.0000 288.0000  3.34706435    12
CTC1_L_00658001-10
1 10009U 26389SL  26075.70039352  .00000000  00000+0  00000-0 0  9996
2 10009  70.0000   0.0000 0000000   0.0000 324.0000  3.34706435    14
CTC1_L_00658002-01
1 10010U 25566KM  26075.70039352  .00000000  00000+0  00000-0 0  9994
2 10010  70.0000  30.0000 0000000   0.0000  12.0000  3.34706435    13
CTC1_L_00658002-02
1 10011U 24315YN  26075.70039352  .00000000  00000+0  00000-0 0  9996
2 10011  70.0000  30.0000 0000000   0.0000  48.0000  3.34706435    13
CTC1_L_00658002-03
1 10012U 26622JF  26075.70039352  .00000000  00000+0  00000-0 0  9990
2 10012  70.0000  30.0000 0000000   0.0000  84.0000  3.34706435    14
CTC1_L_00658002-04
1 10013U 24962YI  26075.70039352  .00000000  00000+0  00000-0 0  9996
2 10013  70.0000  30.0000 0000000   0.0000 120.0000  3.34706435    16
CTC1_L_00658002-05
1 10014U 25649MC  26075.70039352  .00000000  00000+0  00000-0 0  9990
2 10014  70.0000  30.0000 0000000   0.0000 156.0000  3.34706435    16
CTC1_L_00658002-06
1 10015U 23805IC  26075.70039352  .00000000  00000+0  00000-0 0  9993
2 10015  70.0000  30.0000 0000000   0.0000 192.0000  3.34706435    17
CTC1_L_00658002-07
1 10016U 25162QW  26075.70039352  .00000000  00000+0  00000-0 0  9992
2 10016  70.0000  30.0000 0000000   0.0000 228.0000  3.34706435    18
CTC1_L_00658002-08
1 10017U 23605RL  26075.70039352  .00000000  00000+0  00000-0 0  9993
2 10017  70.0000  30.0000 0000000   0.0000 264.0000  3.34706435    19
CTC1_L_00658002-09
1 10018U 23242NY  26075.70039352  .00000000  00000+0  00000-0 0  9991
2 10018  70.0000  30.0000 0000000   0.0000 300.0000  3.34706435    11
CTC1_L_00658002-10
1 10019U 22578OU  26075.70039352  .00000000  00000+0  00000-0 0  9993
2 10019  70.0000  30.0000 0000000   0.0000 336.0000  3.34706435    11
CTC1_L_00658003-01
1 10020U 24070KC  26075.70039352  .00000000  00000+0  00000-0 0  9994
2 10020  70.0000  60.0000 0000000   0.0000  24.0000  3.34706435    10
CTC1_L_00658003-02
1 10021U 25180JM  26075.70039352  .00000000  00000+0  00000-0 0  9998
2 10021  70.0000  60.0000 0000000   0.0000  60.0000  3.34706435    11
CTC1_L_00658003-03
1 10022U 22065HM  26075.70039352  .00000000  00000+0  00000-0 0  9998
2 10022  70.0000  60.0000 0000000   0.0000  96.0000  3.34706435    11
CTC1_L_00658003-04
1 10023U 24769WV  26075.70039352  .00000000  00000+0  00000-0 0  9992
2 10023  70.0000  60.0000 0000000   0.0000 132.0000  3.34706435    13
CTC1_L_00658003-05
1 10024U 22394U   26075.70039352  .00000000  00000+0  00000-0 0  9995
2 10024  70.0000  60.0000 0000000   0.0000 168.0000  3.34706435    13
CTC1_L_00658003-06
1 10025U 23423PS  26075.70039352  .00000000  00000+0  00000-0 0  9990
2 10025  70.0000  60.0000 0000000   0.0000 204.0000  3.34706435    15
CTC1_L_00658003-07
1 10026U 23837QD  26075.70039352  .00000000  00000+0  00000-0 0  9990
2 10026  70.0000  60.0000 0000000   0.0000 240.0000  3.34706435    16
CTC1_L_00658003-08
1 10027U 25663KW  26075.70039352  .00000000  00000+0  00000-0 0  9990
2 10027  70.0000  60.0000 0000000   0.0000 276.0000  3.34706435    16
CTC1_L_00658003-09
1 10028U 23630XN  26075.70039352  .00000000  00000+0  00000-0 0  9993
2 10028  70.0000  60.0000 0000000   0.0000 312.0000  3.34706435    18
CTC1_L_00658003-10
1 10029U 25212TS  26075.70039352  .00000000  00000+0  00000-0 0  9992
2 10029  70.0000  60.0000 0000000   0.0000 348.0000  3.34706435    18
CTC1_L_00658004-01
1 10030U 26987DJ  26075.70039352  .00000000  00000+0  00000-0 0  9994
2 10030  70.0000  90.0000 0000000   0.0000  36.0000  3.34706435    17
CTC1_L_00658004-02
1 10031U 26030AZ  26075.70039352  .00000000  00000+0  00000-0 0  9994
2 10031  70.0000  90.0000 0000000   0.0000  72.0000  3.34706435    18
CTC1_L_00658004-03
1 10032U 22150YJ  26075.70039352  .00000000  00000+0  00000-0 0  9994
2 10032  70.0000  90.0000 0000000   0.0000 108.0000  3.34706435    19
CTC1_L_00658004-04
1 10033U 22485ON  26075.70039352  .00000000  00000+0  00000-0 0  9996
2 10033  70.0000  90.0000 0000000   0.0000 144.0000  3.34706435    10
CTC1_L_00658004-05
1 10034U 22219XU  26075.70039352  .00000000  00000+0  00000-0 0  9992
2 10034  70.0000  90.0000 0000000   0.0000 180.0000  3.34706435    11
CTC1_L_00658004-06
1 10035U 23717TD  26075.70039352  .00000000  00000+0  00000-0 0  9997
2 10035  70.0000  90.0000 0000000   0.0000 216.0000  3.34706435    12
CTC1_L_00658004-07
1 10036U 26803AW  26075.70039352  .00000000  00000+0  00000-0 0  9997
2 10036  70.0000  90.0000 0000000   0.0000 252.0000  3.34706435    13
CTC1_L_00658004-08
1 10037U 23145IY  26075.70039352  .00000000  00000+0  00000-0 0  9994
2 10037  70.0000  90.0000 0000000   0.0000 288.0000  3.34706435    13
CTC1_L_00658004-09
1 10038U 26748WT  26075.70039352  .00000000  00000+0  00000-0 0  9997
2 10038  70.0000  90.0000 0000000   0.0000 324.0000  3.34706435    15
CTC1_L_00658004-10
1 10039U 25925BT  26075.70039352  .00000000  00000+0  00000-0 0  9994
2 10039  70.0000  90.0000 0000000   0.0000   0.0000  3.34706435    17
CTC1_L_00658005-01
1 10040U 26312DV  26075.70039352  .00000000  00000+0  00000-0 0  9997
2 10040  70.0000 120.0000 0000000   0.0000  48.0000  3.34706435    15
CTC1_L_00658005-02
1 10041U 26890ZC  26075.70039352  .00000000  00000+0  00000-0 0  9999
2 10041  70.0000 120.0000 0000000   0.0000  84.0000  3.34706435    16
CTC1_L_00658005-03
1 10042U 23748OG  26075.70039352  .00000000  00000+0  00000-0 0  9999
2 10042  70.0000 120.0000 0000000   0.0000 120.0000  3.34706435    18
CTC1_L_00658005-04
1 10043U 23075NB  26075.70039352  .00000000  00000+0  00000-0 0  9993
2 10043  70.0000 120.0000 0000000   0.0000 156.0000  3.34706435    18
CTC1_L_00658005-05
1 10044U 24751LJ  26075.70039352  .00000000  00000+0  00000-0 0  9996
2 10044  70.0000 120.0000 0000000   0.0000 192.0000  3.34706435    19
CTC1_L_00658005-06
1 10045U 26704YZ  26075.70039352  .00000000  00000+0  00000-0 0  9997
2 10045  70.0000 120.0000 0000000   0.0000 228.0000  3.34706435    10
CTC1_L_00658005-07
1 10046U 22790X   26075.70039352  .00000000  00000+0  00000-0 0  9999
2 10046  70.0000 120.0000 0000000   0.0000 264.0000  3.34706435    11
CTC1_L_00658005-08
1 10047U 23672QB  26075.70039352  .00000000  00000+0  00000-0 0  9990
2 10047  70.0000 120.0000 0000000   0.0000 300.0000  3.34706435    13
CTC1_L_00658005-09
1 10048U 22157XO  26075.70039352  .00000000  00000+0  00000-0 0  9998
2 10048  70.0000 120.0000 0000000   0.0000 336.0000  3.34706435    13
CTC1_L_00658005-10
1 10049U 24015GA  26075.70039352  .00000000  00000+0  00000-0 0  9994
2 10049  70.0000 120.0000 0000000   0.0000  12.0000  3.34706435    15
CTC1_L_00658006-01
1 10050U 23506BS  26075.70039352  .00000000  00000+0  00000-0 0  9990
2 10050  70.0000 150.0000 0000000   0.0000  60.0000  3.34706435    13
CTC1_L_00658006-02
1 10051U 22263DW  26075.70039352  .00000000  00000+0  00000-0 0  9990
2 10051  70.0000 150.0000 0000000   0.0000  96.0000  3.34706435    13
CTC1_L_00658006-03
1 10052U 26047JZ  26075.70039352  .00000000  00000+0  00000-0 0  9995
2 10052  70.0000 150.0000 0000000   0.0000 132.0000  3.34706435    15
CTC1_L_00658006-04
1 10053U 25555FF  26075.70039352  .00000000  00000+0  00000-0 0  9999
2 10053  70.0000 150.0000 0000000   0.0000 168.0000  3.34706435    15
CTC1_L_00658006-05
1 10054U 22697LJ  26075.70039352  .00000000  00000+0  00000-0 0  9994
2 10054  70.0000 150.0000 0000000   0.0000 204.0000  3.34706435    17
CTC1_L_00658006-06
1 10055U 23603JD  26075.70039352  .00000000  00000+0  00000-0 0  9993
2 10055  70.0000 150.0000 0000000   0.0000 240.0000  3.34706435    18
CTC1_L_00658006-07
1 10056U 26005PX  26075.70039352  .00000000  00000+0  00000-0 0  9993
2 10056  70.0000 150.0000 0000000   0.0000 276.0000  3.34706435    18
CTC1_L_00658006-08
1 10057U 25334VK  26075.70039352  .00000000  00000+0  00000-0 0  9998
2 10057  70.0000 150.0000 0000000   0.0000 312.0000  3.34706435    10
CTC1_L_00658006-09
1 10058U 25699QS  26075.70039352  .00000000  00000+0  00000-0 0  9993
2 10058  70.0000 150.0000 0000000   0.0000 348.0000  3.34706435    10
CTC1_L_00658006-10
1 10059U 25379OC  26075.70039352  .00000000  00000+0  00000-0 0  9999
2 10059  70.0000 150.0000 0000000   0.0000  24.0000  3.34706435    12
CTC1_L_00658007-01
1 10060U 23280NY  26075.70039352  .00000000  00000+0  00000-0 0  9990
2 10060  70.0000 180.0000 0000000   0.0000  72.0000  3.34706435    10
CTC1_L_00658007-02
1 10061U 25956TJ  26075.70039352  .00000000  00000+0  00000-0 0  9993
2 10061  70.0000 180.0000 0000000   0.0000 108.0000  3.34706435    11
